GLOBALSTAR M094         
1 39074U 13005C   25052.72644327 -.00000096  00000+0  43432-4 0  9996
2 39074  51.9949 173.6603 0000868  86.5022 273.5944 12.62268388557796
GLOBALSTAR M096         
1 39075U 13005D   25052.73969529 -.00000084  00000+0  10761-3 0  9997
2 39075  52.0051 222.0453 0000922  75.7502 284.3467 12.62268499556713
GLOBALSTAR M078         
1 39076U 13005E   25052.95012344 -.00000179  00000+0 -42104-3 0  9998
2 39076  51.9886 306.0690 0000537 326.8733  33.2100 12.62270917555365
GLOBALSTAR M095         
1 39077U 13005F   25052.89786818 -.00000072  00000+0  17613-3 0  9994
2 39077  51.9809 303.4865 0000763  26.7788 333.3117 12.62266745555213
GLOBALSTAR M087         
1 52888U 22064A   25052.77019894 -.00000097  00000+0  35079-4 0  9998
2 52888  51.9786  85.2775 0000290 100.1621 259.9278 12.62268811130468
